{
 "type": "FeatureCollection",
 "features": [
  {
   "type": "Feature",
   "geometry": {
    "type": "LineString",
    "coordinates": [
     [
      -122.510341319,
      37.764000833
     ],
     [
      -122.510250238,
      37.763876233
     ],
     [
      -122.510191568,
      37.763232236
     ],
     [
      -122.510055733,
      37.762104522
     ],
     [
      -122.509081959,
      37.754595346
     ],
     [
      -122.508598808,
      37.750882003
     ],
     [
      -122.50669199,
      37.736223159
     ],
     [
      -122.506672003,
      37.735641799
     ],
     [
      -122.506717429,
      37.735469758
     ]
    ]
   },
   "properties": {
    "cnn": "6436101",
    "name": "Sunset Dunes"
   }
  },
  {
   "type": "Feature",
   "geometry": {
    "type": "LineString",
    "coordinates": [
     [
      -122.510341319,
      37.764000833
     ],
     [
      -122.510406841,
      37.763868537
     ],
     [
      -122.510173739,
      37.762100948
     ],
     [
      -122.50969114,
      37.758430997
     ],
     [
      -122.509195895,
      37.754588219
     ],
     [
      -122.508711798,
      37.750869183
     ],
     [
      -122.506823759,
      37.73622098
     ],
     [
      -122.506795851,
      37.735626084
     ],
     [
      -122.506717429,
      37.735469758
     ]
    ]
   },
   "properties": {
    "cnn": "6436201",
    "name": "Sunset Dunes"
   }
  }
 ]
}